CAS-2T & KS-1Q          
1 41847U 16066G   20222.43449641  .00000046  00000-0  16538-4 0  9993
2 41847  98.6498 273.4700 0366679  71.1345 292.9225 14.38083558197037
NAYIF-1 (EO-88)         
1 42017U 17008BX  20222.44715393  .00001387  00000-0  55671-4 0  9991
2 42017  97.3566 289.2310 0007587 126.2598 233.9342 15.26625691193638
MAX VALIER SAT          
1 42778U 17036P   20222.31002136  .00000790  00000-0  36783-4 0  9996
2 42778  97.3009 274.4745 0011882 188.0975 172.0072 15.22698713173777
RADFXSAT (FOX-1B)       
1 43017U 17073E   20222.49900958  .00000247  00000-0  25182-4 0  9990
2 43017  97.7190 132.6871 0255515 237.3664 120.2659 14.78988000147004
FOX-1D (AO-92)          
1 43137U 18004AC  20222.46507000  .00000867  00000-0  38499-4 0  9999
2 43137  97.4429 293.2620 0007972 221.4219 138.6414 15.24208622143114
DIWATA-2B               
1 43678U 18084H   20222.46876909 -.00000341  00000-0 -28156-4 0  9992
2 43678  97.8908 340.8874 0010183  10.5549 349.5867 14.91639802 96923
ES'HAIL 2               
1 43700U 18090A   20222.36924267  .00000141  00000-0  00000+0 0  9994
2 43700   0.0177 103.4815 0002092  68.5883 304.9538  1.00275435  6481
FOX-1CLIFF (AO-95)      
1 43770U 18099N   20222.45095772 -.00000101  00000-0 -39582-5 0  9991
2 43770  97.7029 292.9011 0015101  25.7825 334.4146 14.95018162 91831
ITASAT 1                
1 43786U 18099AE  20222.16828274 -.00000013  00000-0  40468-5 0  9993
2 43786  97.7048 293.0807 0015696  20.4834 339.7013 14.95355238 91812
JY1SAT (JO-97)          
1 43803U 18099AX  20222.44411860 -.00000190  00000-0 -11875-4 0  9999
2 43803  97.7008 293.1584 0015586  19.6604 340.5214 14.95536741 91851
PSAT2 (NO-104)          
1 44354U 19036R   20221.81969592  .00015050  00000-0  21874-3 0  9991
2 44354  28.5304  36.5180 0360886 150.5157 211.6310 15.04371698 61715
BRICSAT2 (NO-103)       
1 44355U 19036S   20222.55467267  .00025012  00000-0  34449-3 0  9997
2 44355  28.5316  20.0301 0336020 177.3191 182.9283 15.10638883 61943
JAISAT-1                
1 44419U 19038F   20222.47025241  .00000736  00000-0  45472-4 0  9998
2 44419  97.5423 183.4584 0020321 311.3230  48.6251 15.12855453 60616
DUCHIFAT-3              
1 44854U 19089C   20222.18098772  .00000331  00000-0  33186-4 0  9994
2 44854  36.9662 146.7345 0007352 131.6275 228.5097 14.99098130 36210
RS-44 & BREEZE-KM R/B   
1 44909U 19096E   20222.52327429  .00000029  00000-0  61396-4 0  9993
2 44909  82.5241 320.0521 0218494 102.4254 260.1391 12.79707844 28976
ORBITAL FACTORY 2 (OF-2)
1 45113U 19071C   20222.40284642  .00001361  00000-0  52841-4 0  9995
2 45113  51.6443 107.7354 0012345 247.3894 112.5782 15.33510812 29251
HUSKYSAT-1              
1 45119U 19071J   20222.24364730  .00001240  00000-0  48890-4 0  9995
2 45119  51.6442 108.1730 0011624 243.1442 116.8352 15.33714848 29223
